[{"OBJECT_NAME":"STARLINK-34972","OBJECT_ID":"2025-175Q","EPOCH":"2026-03-09T15:19:18.141888","MEAN_MOTION":15.05650158,"ECCENTRICITY":0.0002357,"INCLINATION":97.6017,"RA_OF_ASC_NODE":302.6217,"ARG_OF_PERICENTER":70.2971,"MEAN_ANOMALY":289.8509,"EPHEMERIS_TYPE":0,"CLASSIFICATION_TYPE":"U","NORAD_CAT_ID":65188,"ELEMENT_SET_NO":999,"REV_AT_EPOCH":3260,"BSTAR":0.00022303,"MEAN_MOTION_DOT":3.159e-5,"MEAN_MOTION_DDOT":0},{"OBJECT_NAME":"COSMOS 397 DEB","OBJECT_ID":"1971-015U","EPOCH":"2026-03-09T13:29:42.554976","MEAN_MOTION":14.46444927,"ECCENTRICITY":0.0335899,"INCLINATION":65.6875,"RA_OF_ASC_NODE":135.6369,"ARG_OF_PERICENTER":212.43,"MEAN_ANOMALY":145.5762,"EPHEMERIS_TYPE":0,"CLASSIFICATION_TYPE":"U","NORAD_CAT_ID":5094,"ELEMENT_SET_NO":999,"REV_AT_EPOCH":67470,"BSTAR":0.0028972,"MEAN_MOTION_DOT":0.00021188,"MEAN_MOTION_DDOT":0}]
